[{"OBJECT_NAME":"STARLINK-33596","OBJECT_ID":"2025-015A","EPOCH":"2026-03-09T22:15:37.905120","MEAN_MOTION":15.30212806,"ECCENTRICITY":9.92e-5,"INCLINATION":53.1572,"RA_OF_ASC_NODE":321.6318,"ARG_OF_PERICENTER":112.1203,"MEAN_ANOMALY":247.9903,"EPHEMERIS_TYPE":0,"CLASSIFICATION_TYPE":"U","NORAD_CAT_ID":62758,"ELEMENT_SET_NO":999,"REV_AT_EPOCH":6444,"BSTAR":0.0010771292,"MEAN_MOTION_DOT":0.00031691,"MEAN_MOTION_DDOT":0},{"OBJECT_NAME":"NOAA 17 DEB","OBJECT_ID":"2002-032AF","EPOCH":"2026-03-09T00:24:06.552000","MEAN_MOTION":15.25501717,"ECCENTRICITY":0.00030847,"INCLINATION":98.6472,"RA_OF_ASC_NODE":92.5947,"ARG_OF_PERICENTER":165.9893,"MEAN_ANOMALY":194.1428,"EPHEMERIS_TYPE":0,"CLASSIFICATION_TYPE":"U","NORAD_CAT_ID":48614,"ELEMENT_SET_NO":999,"REV_AT_EPOCH":26420,"BSTAR":0.01090047,"MEAN_MOTION_DOT":0.00286783,"MEAN_MOTION_DDOT":0}]
